SKYSAT-C1               
1 41601U 16040C   26183.00064639  .00010682  00000+0  30140-3 0  9998
2 41601  96.9550 213.9188 0001877  25.1186 335.0150 15.36552453560148
LAPAN-A3                
1 41603U 16040E   26183.26795786  .00004114  00000+0  13048-3 0  9993
2 41603  97.1491 178.9191 0009013 331.3204  28.7542 15.33203258557122
GAOFEN-3                
1 41727U 16049A   26183.27775498  .00000259  00000+0  91646-4 0  9995
2 41727  98.4006 190.8358 0001676  93.9459 266.1922 14.42218099520828
SKYSAT-C4               
1 41771U 16058B   26182.99827631  .00020001  00000+0  37004-3 0  9993
2 41771  96.9164 204.1536 0002654 137.7085 222.4372 15.49057551547769
SKYSAT-C5               
1 41772U 16058C   26183.10164268  .00009278  00000+0  27818-3 0  9993
2 41772  97.0456 223.0774 0001884 192.9306 167.1890 15.34683792546038
SKYSAT-C2               
1 41773U 16058D   26182.98799524  .00014845  00000+0  34515-3 0  9996
2 41773  97.0157 204.5281 0003152  36.8068 323.3396 15.42410271547335
SKYSAT-C3               
1 41774U 16058E   26183.02922714  .00026772  00000+0  42719-3 0  9999
2 41774  96.8997 213.3099 0001558 133.4259 226.7125 15.53183587548419
ALSAT-1B                
1 41785U 16059C   26183.32800056  .00000495  00000+0  85781-4 0  9990
2 41785  97.7744 191.4382 0009358 168.3072 191.8355 14.72286521522802
PATHFINDER 1            
1 41787U 16059E   26183.27172208  .00000713  00000+0  13263-3 0  9995
2 41787  97.8169 181.8673 0029022 155.4643 204.7951 14.67680837521923
SCATSAT 1               
1 41790U 16059H   26183.15944760  .00001477  00000+0  19999-3 0  9996
2 41790  98.1185 247.0799 0054246 198.4809 161.4433 14.79560436103802
GOKTURK 1A              
1 41875U 16073A   26183.29456564  .00000593  00000+0  12531-3 0  9994
2 41875  98.1237  77.7316 0001416  76.5324 283.6036 14.62785830511039
RESOURCESAT-2A          
1 41877U 16074A   26183.27337304 -.00000030  00000+0  64951-5 0  9997
2 41877  98.7528 256.6544 0003048  54.9391 305.2072 14.21604681496445
CARTOSAT-2D             
1 41948U 17008A   26183.30705138  .00004913  00000+0  23574-3 0  9999
2 41948  97.4097 242.3308 0005280 176.0629 184.0648 15.19323087519872
SENTINEL-2B             
1 42063U 17013A   26183.31237185  .00000186  00000+0  87517-4 0  9993
2 42063  98.5694 257.8733 0001222  90.7195 269.4128 14.30821408486800
CARTOSAT-2E             
1 42767U 17036C   26183.32487144  .00003227  00000+0  15619-3 0  9994
2 42767  97.4264 242.8780 0002446 239.4882 120.6111 15.19280466500440
FORMOSAT-5              
1 42920U 17049A   26183.22480145  .00000193  00000+0  59924-4 0  9999
2 42920  98.2252 258.2004 0012173  42.2769 317.9362 14.50904345468859
SENTINEL-5P             
1 42969U 17064A   26183.28587260  .00000059  00000+0  49124-4 0  9993
2 42969  98.7927 125.3099 0001049  91.3090 268.8206 14.19521501451707
SKYSAT-C11              
1 42987U 17068A   26183.14815966  .00032439  00000+0  42252-3 0  9990
2 42987  97.4370 332.6389 0000527 153.2221 206.9062 15.58682195485570
SKYSAT-C10              
1 42988U 17068B   26183.15774151  .00010215  00000+0  30422-3 0  9996
2 42988  97.4526 320.1536 0001232 107.3051 252.8327 15.34889710484653
SKYSAT-C9               
1 42989U 17068C   26183.29670699  .00014343  00000+0  33856-3 0  9994
2 42989  97.4449 321.3744 0009402  85.6491 274.5830 15.41936810485085
SKYSAT-C8               
1 42990U 17068D   26183.30144368  .00011371  00000+0  31360-3 0  9993
2 42990  97.4545 320.1568 0001295  94.7397 265.3996 15.37271622484632
SKYSAT-C7               
1 42991U 17068E   26183.29553052  .00011152  00000+0  30789-3 0  9997
2 42991  97.4558 321.1413 0006714  62.2949 297.8976 15.37224532484693
SKYSAT-C6               
1 42992U 17068F   26182.95257865  .00011056  00000+0  33597-3 0  9996
2 42992  97.4591 320.7049 0005232 111.0617 249.1185 15.34218392484584
CARTOSAT-2F             
1 43111U 18004A   26183.29139016  .00003225  00000+0  15656-3 0  9991
2 43111  97.4781 242.7784 0001607 162.1098 198.0194 15.19182891469627
GAOFEN-1 02             
1 43259U 18031A   26183.27599661  .00001096  00000+0  16496-3 0  9995
2 43259  98.0522 245.7603 0002294 349.1794  10.9365 14.76457426444925
GAOFEN-1 03             
1 43260U 18031B   26183.25401241  .00000903  00000+0  13728-3 0  9992
2 43260  98.0510 245.5954 0003341  47.6887 312.4605 14.76447701444919
GAOFEN-1 04             
1 43262U 18031D   26183.29755954  .00000808  00000+0  12351-3 0  9996
2 43262  98.0524 245.8314 0001824  62.8229 297.3167 14.76455874444916
SENTINEL-3B             
1 43437U 18039A   26183.19750233  .00000139  00000+0  75334-4 0  9990
2 43437  98.6244 250.5141 0000828 117.5951 242.5314 14.26739089426261
GAOFEN-5 01             
1 43461U 18043A   26183.20131108  .00000372  00000+0  86667-4 0  9998
2 43461  98.4579 155.1035 0002721  56.4634 303.6826 14.60615996433883
GAOFEN-6                
1 43484U 18048A   26182.57383755 -.00000083  00000+0 -44470-5 0  9992
2 43484  98.0968 245.2430 0011818 119.7907 240.4480 14.76366587435511
