OBJECT_NAME,OBJECT_ID,EPOCH,MEAN_MOTION,ECCENTRICITY,INCLINATION,RA_OF_ASC_NODE,ARG_OF_PERICENTER,MEAN_ANOMALY,EPHEMERIS_TYPE,CLASSIFICATION_TYPE,NORAD_CAT_ID,ELEMENT_SET_NO,REV_AT_EPOCH,BSTAR,MEAN_MOTION_DOT,MEAN_MOTION_DDOT
SKYSAT-C1,2016-040C,2026-07-02T00:00:55.848096,15.36552453,.00018777,96.9550,213.9188,25.1186,335.0150,0,U,41601,999,56014,.30140118E-3,.10682E-3,0
LAPAN-A3,2016-040E,2026-07-02T06:25:51.559104,15.33203258,.00090138,97.1491,178.9191,331.3204,28.7542,0,U,41603,999,55712,.13047704E-3,.4114E-4,0
GAOFEN-3,2016-049A,2026-07-02T06:39:58.030272,14.42218099,.00016765,98.4006,190.8358,93.9459,266.1922,0,U,41727,999,52082,.9164609E-4,.259E-5,0
SKYSAT-C4,2016-058B,2026-07-01T23:57:31.073184,15.49057551,.00026544,96.9164,204.1536,137.7085,222.4372,0,U,41771,999,54776,.37003956E-3,.20001E-3,0
SKYSAT-C5,2016-058C,2026-07-02T02:26:21.927552,15.34683792,.00018846,97.0456,223.0774,192.9306,167.1890,0,U,41772,999,54603,.27818297E-3,.9278E-4,0
SKYSAT-C2,2016-058D,2026-07-01T23:42:42.788736,15.42410271,.00031523,97.0157,204.5281,36.8068,323.3396,0,U,41773,999,54733,.34514898E-3,.14845E-3,0
SKYSAT-C3,2016-058E,2026-07-02T00:42:05.224896,15.53183587,.00015589,96.8997,213.3099,133.4259,226.7125,0,U,41774,999,54841,.42718943E-3,.26772E-3,0
ALSAT-1B,2016-059C,2026-07-02T07:52:19.248384,14.72286521,.00093587,97.7744,191.4382,168.3072,191.8355,0,U,41785,999,52280,.85780761E-4,.495E-5,0
PATHFINDER 1,2016-059E,2026-07-02T06:31:16.787712,14.67680837,.0029022,97.8169,181.8673,155.4643,204.7951,0,U,41787,999,52192,.13263089E-3,.713E-5,0
SCATSAT 1,2016-059H,2026-07-02T03:49:36.272640,14.79560436,.00542461,98.1185,247.0799,198.4809,161.4433,0,U,41790,999,10380,.19998706E-3,.1477E-4,0
GOKTURK 1A,2016-073A,2026-07-02T07:04:10.471296,14.62785830,.0001416,98.1237,77.7316,76.5324,283.6036,0,U,41875,999,51103,.12531304E-3,.593E-5,0
RESOURCESAT-2A,2016-074A,2026-07-02T06:33:39.430656,14.21604681,.00030488,98.7528,256.6544,54.9391,305.2072,0,U,41877,999,49644,.6495059E-5,-.3E-6,0
CARTOSAT-2D,2017-008A,2026-07-02T07:22:09.239232,15.19323087,.00052805,97.4097,242.3308,176.0629,184.0648,0,U,41948,999,51987,.23573816E-3,.4913E-4,0
SENTINEL-2B,2017-013A,2026-07-02T07:29:48.927840,14.30821408,.00012229,98.5694,257.8733,90.7195,269.4128,0,U,42063,999,48680,.87516754E-4,.186E-5,0
CARTOSAT-2E,2017-036C,2026-07-02T07:47:48.892416,15.19280466,.00024469,97.4264,242.8780,239.4882,120.6111,0,U,42767,999,50044,.15619219E-3,.3227E-4,0
FORMOSAT-5,2017-049A,2026-07-02T05:23:42.845280,14.50904345,.00121737,98.2252,258.2004,42.2769,317.9362,0,U,42920,999,46885,.59924361E-4,.193E-5,0
SENTINEL-5P,2017-064A,2026-07-02T06:51:39.392640,14.19521501,.00010499,98.7927,125.3099,91.3090,268.8206,0,U,42969,999,45170,.49123695E-4,.59E-6,0
SKYSAT-C11,2017-068A,2026-07-02T03:33:20.994624,15.58682195,.00005277,97.4370,332.6389,153.2221,206.9062,0,U,42987,999,48557,.42252295E-3,.32439E-3,0
SKYSAT-C10,2017-068B,2026-07-02T03:47:08.866464,15.34889710,.00012327,97.4526,320.1536,107.3051,252.8327,0,U,42988,999,48465,.30422372E-3,.10215E-3,0
SKYSAT-C9,2017-068C,2026-07-02T07:07:15.483936,15.41936810,.00094025,97.4449,321.3744,85.6491,274.5830,0,U,42989,999,48508,.33855955E-3,.14343E-3,0
SKYSAT-C8,2017-068D,2026-07-02T07:14:04.733952,15.37271622,.00012953,97.4545,320.1568,94.7397,265.3996,0,U,42990,999,48463,.31359781E-3,.11371E-3,0
SKYSAT-C7,2017-068E,2026-07-02T07:05:33.836928,15.37224532,.00067147,97.4558,321.1413,62.2949,297.8976,0,U,42991,999,48469,.30789164E-3,.11152E-3,0
SKYSAT-C6,2017-068F,2026-07-01T22:51:42.795360,15.34218392,.00052325,97.4591,320.7049,111.0617,249.1185,0,U,42992,999,48458,.33596518E-3,.11056E-3,0
CARTOSAT-2F,2018-004A,2026-07-02T06:59:36.109824,15.19182891,.0001607,97.4781,242.7784,162.1098,198.0194,0,U,43111,999,46962,.15656101E-3,.3225E-4,0
GAOFEN-1 02,2018-031A,2026-07-02T06:37:26.107104,14.76457426,.00022945,98.0522,245.7603,349.1794,10.9365,0,U,43259,999,44492,.1649567E-3,.1096E-4,0
GAOFEN-1 03,2018-031B,2026-07-02T06:05:46.672224,14.76447701,.0003341,98.0510,245.5954,47.6887,312.4605,0,U,43260,999,44491,.13728313E-3,.903E-5,0
GAOFEN-1 04,2018-031D,2026-07-02T07:08:29.144256,14.76455874,.00018249,98.0524,245.8314,62.8229,297.3167,0,U,43262,999,44491,.12351468E-3,.808E-5,0
SENTINEL-3B,2018-039A,2026-07-02T04:44:24.201312,14.26739089,.00008281,98.6244,250.5141,117.5951,242.5314,0,U,43437,999,42626,.75333636E-4,.139E-5,0
GAOFEN-5 01,2018-043A,2026-07-02T04:49:53.277312,14.60615996,.00027218,98.4579,155.1035,56.4634,303.6826,0,U,43461,999,43388,.86667018E-4,.372E-5,0
GAOFEN-6,2018-048A,2026-07-01T13:46:19.564320,14.76366587,.00118189,98.0968,245.2430,119.7907,240.4480,0,U,43484,999,43551,-.4446977E-5,-.83E-6,0
